MEAN_MOTION;ECCENTRICITY;INCLINATION;RA_OF_ASC_NODE;ARG_OF_PERICENTER;MEAN_ANOMALY;BSTAR;MEAN_MOTION_DOT;MEAN_MOTION_DDOT;TYPE
0.99260898;0.0007096;13.4032;330.098;214.279;145.6821;0;-2.45E-6;0;Intelsat
0.99260449;0.0007026;13.4016;330.0874;213.5835;146.378;0;-2.37E-6;0;Intelsat
0.99260048;0.0006976;13.3999;330.0768;212.9223;147.0367;0;-2.27E-6;0;Intelsat
0.9926009;0.0006959;13.3999;330.0769;212.1828;147.7772;0;-2.27E-6;0;Intelsat
0.99259397;0.000693;13.3967;330.0556;211.0118;148.9356;0;-2.02E-6;0;Intelsat
0.99259156;0.0006945;13.395;330.045;210.1738;149.7658;0;-1.86E-6;0;Intelsat
0.99258959;0.0006984;13.3934;330.0343;209.3477;150.5846;0;-1.69E-6;0;Intelsat
0.99258808;0.0007036;13.3918;330.0235;208.5734;151.3534;0;-1.49E-6;0;Intelsat
0.99258685;0.000711;13.3902;330.0125;207.6179;152.3062;0;-1.29E-6;0;Intelsat
0.992586;0.0007181;13.3887;330.0016;207.0325;152.8911;0;-1.08E-6;0;Intelsat
0.99258531;0.0007243;13.3873;329.9909;206.5932;153.3321;0;-8.7E-7;0;Intelsat
0.99258484;0.0007322;13.3859;329.9801;206.2903;153.6381;0;-6.6E-7;0;Intelsat
0.99258455;0.0007402;13.3845;329.9693;206.1909;153.7409;0;-4.5E-7;0;Intelsat
0.99258474;0.0007429;13.3845;329.9693;206.2853;153.6463;0;-4.5E-7;0;Intelsat
0.99258432;0.0007468;13.3831;329.9585;206.3313;153.6035;0;-2.6E-7;0;Intelsat
0.9925843;0.0007515;13.3817;329.9477;206.4401;153.4967;0;-8.0E-8;0;Intelsat
0.99258442;0.0007559;13.3804;329.9369;206.5307;153.4068;0;9.0E-8;0;Intelsat
0.99258447;0.0007592;13.3792;329.9261;207.199;152.7369;0;2.4E-7;0;Intelsat
0.99258476;0.0007585;13.3791;329.9261;207.0122;152.9239;0;2.4E-7;0;Intelsat
0.99258476;0.0007585;13.3791;329.9261;207.0122;152.9239;0;2.4E-7;0;Intelsat
0.99258533;0.0007597;13.3778;329.9152;207.3656;152.5679;0;3.8E-7;0;Intelsat
0.99258594;0.0007596;13.3767;329.9044;207.8582;152.071;0;4.9E-7;0;Intelsat
0.99258557;0.0007603;13.3767;329.9044;207.797;152.1321;0;4.9E-7;0;Intelsat
0.99258693;0.0007589;13.3754;329.8937;208.0294;151.8951;0;5.8E-7;0;Intelsat
0.99258836;0.0007568;13.374;329.8829;208.2083;151.7114;0;6.4E-7;0;Intelsat
0.99258768;0.0007543;13.374;329.883;208.4474;151.4721;0;6.4E-7;0;Intelsat
0.99258915;0.00075;13.3726;329.8723;208.7121;151.2031;0;6.8E-7;0;Intelsat
0.99259145;0.0007471;13.3712;329.8616;208.7444;151.1679;0;6.9E-7;0;Intelsat
0.99259089;0.0007444;13.3713;329.8617;208.9145;150.9978;0;6.9E-7;0;Intelsat
0.99259291;0.0007377;13.3698;329.8512;209.0382;150.873;0;6.6E-7;0;Intelsat
0.9925956;0.0007339;13.3684;329.8406;208.9906;150.9214;0;6.0E-7;0;Intelsat
0.99259798;0.000724;13.3668;329.8303;208.8959;151.0188;0;5.1E-7;0;Intelsat
0.99260109;0.0007197;13.3653;329.8197;208.7323;151.1853;0;3.8E-7;0;Intelsat
0.99260511;0.000717;13.3637;329.8091;208.6208;151.2989;0;2.2E-7;0;Intelsat
0.9926045;0.0007109;13.3636;329.8094;208.1983;151.7223;0;2.2E-7;0;Intelsat
0.99260816;0.0007081;13.362;329.7989;207.7125;152.2091;0;2.0E-8;0;Intelsat
0.99260842;0.0007073;13.362;329.7989;207.5661;152.3557;0;2.0E-8;0;Intelsat
0.99261694;0.0007056;13.3588;329.7775;206.8298;153.0858;0;-4.2E-7;0;Intelsat
0.99261733;0.0007057;13.3587;329.7778;206.0151;153.9014;0;-4.2E-7;0;Intelsat
0.99262615;0.0007085;13.3556;329.7563;205.2509;154.6515;0;-9.2E-7;0;Intelsat
0.99262634;0.0007097;13.3555;329.7564;204.8231;155.0798;0;-9.2E-7;0;Intelsat
0.99263559;0.0007186;13.3524;329.7349;203.7494;156.1417;0;-1.42E-6;0;Intelsat
0.99263559;0.0007186;13.3524;329.7349;203.7494;156.1417;0;-1.42E-6;0;Intelsat
0.99264006;0.0007255;13.3508;329.7242;203.1747;156.7139;0;-1.66E-6;0;Intelsat
0.9926442;0.0007339;13.3492;329.7134;202.6656;157.2233;0;-1.9E-6;0;Intelsat
0.99264584;0.0007427;13.3492;329.7134;202.2546;157.6345;0;-1.9E-6;0;Intelsat
0.99264886;0.0007501;13.3477;329.7026;202.0691;157.8224;0;-2.12E-6;0;Intelsat
0.99264934;0.0007523;13.3477;329.7026;201.993;157.8986;0;-2.12E-6;0;Intelsat
0.99265167;0.000759;13.3463;329.6918;201.9443;157.9512;0;-2.34E-6;0;Intelsat
0.99265214;0.0007615;13.3463;329.6918;201.8652;158.0303;0;-2.34E-6;0;Intelsat
0.99265409;0.0007697;13.3449;329.6811;201.8657;158.0345;0;-2.54E-6;0;Intelsat
0.99265502;0.0007745;13.3435;329.6704;201.9646;157.9401;0;-2.71E-6;0;Intelsat
0.99265513;0.000777;13.3435;329.6704;201.9904;157.9141;0;-2.72E-6;0;Intelsat
0.99265525;0.0007824;13.3421;329.6596;202.2338;157.6741;0;-2.87E-6;0;Intelsat
0.99265462;0.0007854;13.3407;329.6488;202.3703;157.5399;0;-3.0E-6;0;Intelsat
0.99265442;0.0007871;13.3407;329.6488;202.5087;157.4013;0;-3.0E-6;0;Intelsat
0.99265264;0.0007899;13.3393;329.638;202.8551;157.0551;0;-3.1E-6;0;Intelsat
0.99265049;0.0007913;13.3379;329.6271;202.9577;156.9517;0;-3.16E-6;0;Intelsat
0.99264999;0.0007913;13.338;329.6272;203.2249;156.6841;0;-3.16E-6;0;Intelsat
0.99264649;0.0007907;13.3366;329.6164;203.645;156.2614;0;-3.19E-6;0;Intelsat
0.99264308;0.0007905;13.3351;329.6056;203.6956;156.208;0;-3.19E-6;0;Intelsat
0.9926429;0.0007905;13.3352;329.6056;203.754;156.1495;0;-3.19E-6;0;Intelsat
0.99264221;0.0007892;13.3352;329.6057;203.9906;155.9125;0;-3.19E-6;0;Intelsat
0.99263797;0.0007883;13.3338;329.5949;204.0734;155.8266;0;-3.15E-6;0;Intelsat
0.99263725;0.0007864;13.3338;329.595;204.2969;155.6029;0;-3.15E-6;0;Intelsat
0.99263288;0.0007862;13.3323;329.5842;204.3407;155.5565;0;-3.07E-6;0;Intelsat
0.99263241;0.000785;13.3323;329.5843;204.3539;155.5434;0;-3.07E-6;0;Intelsat
0.99262567;0.0007777;13.3308;329.5738;204.7629;155.1328;0;-2.96E-6;0;Intelsat
0.99262065;0.000777;13.3293;329.563;204.8191;155.0769;0;-2.82E-6;0;Intelsat
0.9926199;0.0007749;13.3293;329.5632;204.7819;155.1142;0;-2.82E-6;0;Intelsat
0.99261327;0.0007691;13.3277;329.5527;204.8449;155.0535;0;-2.66E-6;0;Intelsat
0.99260749;0.0007656;13.3262;329.5421;204.9369;154.9653;0;-2.47E-6;0;Intelsat
0.99260008;0.0007571;13.3245;329.532;204.6567;155.2507;0;-2.27E-6;0;Intelsat
0.99259475;0.0007548;13.323;329.5214;204.5718;155.3398;0;-2.05E-6;0;Intelsat
0.99259388;0.0007509;13.3228;329.5217;204.2142;155.6981;0;-2.06E-6;0;Intelsat
0.99258818;0.0007484;13.3212;329.5111;203.9163;155.9988;0;-1.83E-6;0;Intelsat
0.99258827;0.0007484;13.3211;329.5113;203.7042;156.2112;0;-1.83E-6;0;Intelsat
0.99258372;0.000748;13.3196;329.5005;203.6701;156.2452;0;-1.59E-6;0;Intelsat
0.99258309;0.0007469;13.3195;329.5006;203.3571;156.5587;0;-1.59E-6;0;Intelsat
0.99258328;0.0007475;13.3194;329.5007;203.0945;156.8216;0;-1.59E-6;0;Intelsat
0.99257874;0.0007477;13.3178;329.49;202.6897;157.2241;0;-1.35E-6;0;Intelsat
0.99257547;0.000749;13.3162;329.4792;202.3829;157.5262;0;-1.1E-6;0;Intelsat
0.99257571;0.0007522;13.316;329.4795;201.7155;158.1943;0;-1.1E-6;0;Intelsat
0.99257258;0.000755;13.3144;329.4688;201.3859;158.5181;0;-8.5E-7;0;Intelsat
0.99257085;0.0007614;13.3127;329.4581;200.7784;159.1203;0;-6.0E-7;0;Intelsat
0.99256999;0.0007696;13.3111;329.4474;200.2642;159.6308;0;-3.6E-7;0;Intelsat
0.99257074;0.0007734;13.311;329.4474;199.9942;159.901;0;-3.6E-7;0;Intelsat
0.99257068;0.0007825;13.3095;329.4366;199.6132;160.2808;0;-1.2E-7;0;Intelsat
0.99257088;0.0007895;13.3077;329.426;199.425;160.4704;0;9.0E-8;0;Intelsat
0.9925722;0.0007983;13.3061;329.4152;199.3085;160.5909;0;2.8E-7;0;Intelsat
0.9925722;0.0007983;13.3061;329.4152;199.3085;160.5909;0;2.8E-7;0;Intelsat
0.99257425;0.0008084;13.3047;329.4045;199.2296;160.6754;0;4.4E-7;0;Intelsat
0.99257681;0.0008181;13.3033;329.3938;199.2283;160.6831;0;5.8E-7;0;Intelsat
0.99257681;0.0008181;13.3033;329.3938;199.2283;160.6831;0;5.7E-7;0;Intelsat
0.99257977;0.000827;13.3018;329.3831;199.3445;160.5731;0;6.7E-7;0;Intelsat
0.99258308;0.0008344;13.3004;329.3725;199.5523;160.3706;0;7.3E-7;0;Intelsat
0.99258661;0.0008409;13.2989;329.3617;199.8566;160.07;0;7.6E-7;0;Intelsat
0.99259003;0.0008423;13.2974;329.3509;200.0238;159.9053;0;7.5E-7;0;Intelsat
0.99259036;0.0008446;13.2975;329.3509;200.1571;159.7716;0;7.5E-7;0;Intelsat
0.99259421;0.0008481;13.2961;329.3402;200.5624;159.3668;0;7.0E-7;0;Intelsat
0.992598;0.000848;13.2946;329.3293;200.8254;159.1032;0;6.3E-7;0;Intelsat
0.99259808;0.0008487;13.2947;329.3294;200.9798;158.9485;0;6.3E-7;0;Intelsat
0.99260191;0.0008483;13.293;329.3185;201.3834;158.5431;0;5.3E-7;0;Intelsat
0.99260583;0.0008466;13.2916;329.3078;201.683;158.2418;0;4.0E-7;0;Intelsat
0.99260564;0.0008461;13.2916;329.3078;201.7826;158.142;0;4.0E-7;0;Intelsat
0.99260955;0.0008443;13.2901;329.2971;202.058;157.8654;0;2.4E-7;0;Intelsat
0.9926126;0.0008403;13.2886;329.2866;202.41;157.5131;0;7.0E-8;0;Intelsat
0.99261579;0.0008361;13.287;329.276;202.6259;157.299;0;-1.3E-7;0;Intelsat
0.99261949;0.0008318;13.2855;329.2654;202.797;157.1316;0;-3.4E-7;0;Intelsat
0.9926188;0.0008294;13.2854;329.2656;202.7897;157.139;0;-3.4E-7;0;Intelsat
0.99262159;0.0008212;13.2838;329.255;202.88;157.0541;0;-5.7E-7;0;Intelsat
0.99262424;0.0008148;13.2821;329.2445;202.8177;157.1229;0;-8.1E-7;0;Intelsat
0.99262678;0.0008098;13.2804;329.2339;202.6378;157.309;0;-1.06E-6;0;Intelsat
0.99262973;0.0008076;13.2787;329.2232;202.5168;157.4344;0;-1.31E-6;0;Intelsat
0.99262914;0.0008056;13.2786;329.2233;202.3291;157.6224;0;-1.31E-6;0;Intelsat
0.99263138;0.0008043;13.2769;329.2126;201.9101;158.0437;0;-1.55E-6;0;Intelsat
0.99263347;0.0008064;13.2751;329.2018;201.3939;158.5594;0;-1.79E-6;0;Intelsat
0.99263401;0.0008079;13.275;329.2018;201.0973;158.8563;0;-1.79E-6;0;Intelsat
0.9926371;0.0008142;13.2716;329.18;200.3689;159.5769;0;-2.2E-6;0;Intelsat
0.99263855;0.0008212;13.2699;329.169;199.9012;160.0402;0;-2.36E-6;0;Intelsat
0.99263971;0.0008293;13.2683;329.158;199.4916;160.4469;0;-2.5E-6;0;Intelsat
0.99264044;0.0008375;13.2667;329.1469;199.1984;160.7394;0;-2.6E-6;0;Intelsat
0.99264112;0.0008415;13.2667;329.1468;199.0282;160.9097;0;-2.6E-6;0;Intelsat
0.99264132;0.0008499;13.2651;329.1358;198.8689;161.0711;0;-2.68E-6;0;Intelsat
0.99264055;0.0008573;13.2636;329.125;198.8778;161.0668;0;-2.73E-6;0;Intelsat
0.99263906;0.0008607;13.2624;329.1141;198.8288;161.1225;0;-2.76E-6;0;Intelsat
0.9926398;0.0008688;13.2624;329.114;198.8558;161.0951;0;-2.75E-6;0;Intelsat
0.9926385;0.0008789;13.2609;329.1031;198.9559;161.0021;0;-2.76E-6;0;Intelsat
0.99263598;0.000882;13.2594;329.0922;198.9972;160.9683;0;-2.74E-6;0;Intelsat
